#dP2021  6 20  0  0  0.00000000      96 __u+U ITR00 EXT  IAC
## 2163      0.00000000   900.00000000 59385 0.0000000000000
+  116   C06C07C08C09C10C11C12C13C14C16C19C20C21C22C23C24C25
+        C26C27C28C29C30C32C33C34C35C36C37C38C39C40C41C42C43
+        C44C45C46E01E02E03E04E05E07E08E09E11E12E13E14E15E18
+        E19E21E24E25E26E27E30E31E33E36G01G02G03G04G05G06G07
+        G08G09G10G12G13G14G15G16G17G18G19G20G21G22G23G24G25
+        G26G27G28G29G30G31G32J01J02J03R01R02R03R04R05R07R08
+        R09R11R12R13R14R15R16R17R18R19R20R21R22R24  0  0  0
++        10 13  7 10 13  8 10  8  8 11  9  9  8  9 10 10  8
++         8  8  9  8  8  9  9  8  9  8  8 10  9 10  8  8  9
++         8  9  7  7  7  7  8  7  7  7  6  9  9  9  8  9  7
++         7  7  7  8  7  7  7  9  9  9  6  8  6  9  8  7  9
++         7  9  7  8  7  7  7  7  8  7  7  7  7  7  8  9  7
++         7  7  8  8  7  7  9 10  9  9  8 10  9  9  8  7  8
++        11  7  9  9  9  6  9  9  8  7  7  9  9  8  0  0  0
%c M  cc GPS ccc cccc cccc cccc cccc ccccc ccccc ccccc ccccc
%c cc cc ccc ccc cccc cccc cccc cccc ccccc ccccc ccccc ccccc
%f  0.0000000  0.000000000  0.00000000000  0.000000000000000
%f  0.0000000  0.000000000  0.00000000000  0.000000000000000
%i    0    0    0    0      0      0      0      0         0
%i    0    0    0    0      0      0      0      0         0
/* IAC                                ULTRA-RAPID PREDICTION
/* S/V CLOCKS ARE ALIGNED TO GNSS TIME                      
/* G:C1WC2W R:C1PC2P E:C1XC5X C:C2IC6I J:C1CC2S             
/* PCV:IGS14_2148 OL/AL:FES2004  NONE     YN ORB:CoN CLK:CoN
*  2021 06 20 14 30  0.00000000
PC06  -7178.047375  28097.968592  31256.757525    526.137397
PC07 -22474.064447  25676.452472 -24833.818428     53.319728
PC08 -16891.751584  38298.788844  -2944.451495   -895.919222
PC09   5485.671372  35922.438996  22064.523884    433.955209
PC10  -6768.321377  27444.528702 -31153.637567    -27.708167
PC11  -6267.197657  16770.918292 -21339.876728    410.947308
PC12 -17399.278789   -948.405502 -21775.967504    837.897954
PC13  -8944.276793  40176.692532   8619.915465    307.013376
PC14 -16732.964426  13283.216978  18012.473204    882.617467
PC16  -4270.325871  29248.610588  30283.243365   -911.142113
PC19   6151.630935 -15657.947204 -22232.312111    879.523718
PC20  23177.765883  -9512.301588 -12235.382288   -870.155489
PC21 -27217.822488  -2687.757784  -5597.004582   -935.267528
PC22 -15011.297341 -12950.074598 -19647.247294   -949.540565
PC23   5841.823597  18930.464417 -19644.802213   -942.029856
PC24 -18653.251242  17054.407373  11807.160800   -901.719365
PC25  -8010.146715  25979.746673  -6255.400221   -898.084925
PC26 -17421.822996     62.662751  21788.301908    890.023169
PC27  19829.127649  10451.670055  16609.661965    551.404347
PC28  14841.872265  23622.839435    499.872130    -60.065709
PC29  -2019.942689 -22864.428049  15857.413763    408.687761
PC30  13228.290250  -8792.847174  22934.249800    471.337038
PC32  27203.102308   2533.377639   5664.015155   -924.663028
PC33  -6193.878311  15728.902577  22215.611174   -937.585242
PC34 -12767.000726   9573.598491 -22907.777947   -646.115855
PC35 -15462.024003 -23208.821560   -161.661633   -224.399965
PC36   8860.926088 -25791.025683   5942.610971   -728.271612
PC37  17089.103915   1272.578052 -22005.835295   -872.933769
PC38 -15297.822195  39189.282616   -937.670257    156.505302
PC39   -969.085392  30116.515664  29569.313479     31.899566
PC40 -14537.558429  22299.693898 -32711.966995    172.833003
PC41  14685.146855  13098.012028  19837.945130   -949.480873
PC42 -23674.705392   9194.131827  11633.917510   -914.286417
PC43   1389.097654  22705.293337 -16190.772846   -785.097490
PC44 -20266.212309  -9851.785059 -16453.954303    249.143778
PC45  -5895.927200 -18777.547733  19798.267111    472.294070
PC46  18330.169744 -17978.984710 -10960.598207    215.581046
PE01 -26105.794676  11126.576250   8420.721222  -1133.287770
PE02  26106.854125 -11232.127580  -8293.864738    227.423980
PE03  25003.899544   -627.131909 -15812.520984   -444.022979
PE04  -9440.645131  14407.468229  24083.501462   -796.453883
PE05  26140.339678  13753.589403   1884.861303   -271.446883
PE07 -12050.370449 -19941.654083 -18252.817368   -552.153606
PE08   8937.703274 -14505.935200 -24196.850158   5982.979374
PE09  12325.709864  19782.452224  18243.820770   5627.247651
PE11   5566.599644  28733.255871   4472.213835   5826.240094
PE12  -7254.144072  24770.676962 -14513.729652   5150.682192
PE13  -5395.175346 -28814.026397  -4077.982819    417.992300
PE14  -7184.222787  19415.376797 -23739.178492  -1472.739470
PE15   7104.764243 -24797.658308  14512.668163    807.782512
PE18  -6549.403033 -20479.828149  13809.624147  -1613.256807
PE19 -25964.972505  -1258.227236  14169.107853    307.020001
PE21 -19375.368559  -4532.144363  21915.639641   -671.752437
PE24    252.561889  18689.623596 -22956.960166   -965.043623
PE25  19229.907469   4701.405513 -21999.153357   -537.514249
PE26 -14987.568700 -15060.702307 -20612.514060   1671.269739
PE27  -1182.190893 -18272.287616  23262.910484    -58.401461
PE30  18422.634488 -20895.639901  10015.260278   2848.215214
PE31 -17579.593287  21164.302240 -10911.468268   -482.410559
PE33 -15390.862343   6201.811732 -24514.479855   -468.882664
PE36  14685.500976  15870.125125  20216.153393   -223.545879
PG01  13193.778888 -14745.707608  17277.601348    652.611513
PG02 -13384.458385 -10632.241794 -19664.052437   -613.801135
PG03  23135.769795 -12599.843386  -2934.442706   -197.366526
PG04  15552.601009  -6215.830437 -20619.043552   -200.411012
PG05 -24317.196808   3896.268320 -10344.401246    -45.515299
PG06  -7371.137045 -21066.047272 -14300.579991     29.332138
PG07   6650.538242 -24761.422861  -5487.838143    183.039150
PG08  21844.808778   2479.450140  15105.519485    -25.798798
PG09   4774.769920 -15150.740258 -21343.370103   -352.024715
PG10   1941.035627  15403.946167  21633.534442   -146.139587
PG12 -24300.437658  10381.102773  -2039.346239    -57.608453
PG13 -21915.262740 -11499.980312   9694.661953    147.333891
PG14  -1214.495329 -15715.952491  21365.813469     65.262537
PG15 -22146.202703    125.852269  14542.117274   -141.071571
PG16  22499.490297   2643.514744 -14475.830900   -344.320632
PG17  -9016.797056 -20299.340627  14985.093463    461.462791
PG18  -5157.419894  25861.611324  -2830.798589    345.778335
PG19 -16145.689582 -20124.995268   6298.783356     15.874920
PG20 -22662.974461   2968.056931 -13260.130805    520.978816
PG21  15254.496490  -6302.324286  21421.631326    126.261227
PG22  24270.881461  -8198.547435   6794.896464   -583.664551
PG23 -10358.904388  17826.595466  16691.585663     94.647234
PG24 -14668.403808   9878.401114  19453.703033    141.012874
PG25 -16600.926467  16810.187271 -12123.748433    159.315169
PG26  14975.261344   8885.255773 -20181.598085    100.779405
PG27  23228.850656  11789.687368   5922.264669   -150.236246
PG28  -7390.399729 -13463.220010  22206.933806    551.442783
PG29  -6486.614871  13596.534369 -21919.619661   -367.262551
PG30  -1748.407766 -25524.634568   6723.245213   -441.298020
PG31   9130.585758  18808.637476 -16182.643892   -124.145996
PG32  12599.403774  19857.362883  12625.089570     17.755746
PJ01 -30256.088692  21787.607110  24773.493312   -399.459733
PJ02 -35394.544920  22948.549663   2838.695743     -0.337848
PJ03 -19497.918458  23367.717655 -24612.606431     -8.631554
PR01   5993.549451 -10226.059964 -22579.632896     81.146490
PR02 -15815.568610 -10488.706057 -16968.482690    483.062792
PR03 -25107.401602  -4184.909715  -1147.674011     38.038367
PR04 -20124.908288   4208.478213  15125.599185     92.148477
PR05  -3974.154298  10305.706149  23005.693228     73.898905
PR07  25213.746887   3969.823814    611.594395    -42.283683
PR08  20132.345788  -4278.669576 -15021.861931    -59.611825
PR09   3587.197524  12899.839263 -21707.324861     -1.119244
PR11  17475.115748 -16775.261505  -7956.962435    -13.769318
PR12  10211.901365 -21033.366984  10245.103146    238.747097
PR13  -2889.897485 -13219.419135  21609.262343    -56.535885
PR14 -14864.399267   2978.402306  20534.270515     65.552362
PR15 -17699.614993  16792.615752   7473.471184    103.142368
PR16  -8879.951745  21073.967519 -11186.320331    -16.636650
PR17 -13417.867549 -10483.561090 -19007.851103    434.277210
PR18  -8386.949583   7000.751533 -23047.345316     80.690748
PR19    -44.934491  20254.808201 -15509.810124   -148.474659
PR20  10014.280017  23197.389500   3660.172683    -51.185899
PR21  13170.719503   9305.457988  19746.759768   -217.949955
PR22   7950.679622  -7845.673985  22900.627396   -118.640965
PR24 -10719.857289 -22744.419361  -4330.901324     47.283859
EOF
